start=new Date('2022-03-29T00:00:00.000Z').valueOf();
sats=[{"TIME_SYSTEM":"UTC","FILE":"3378342","NORAD_CAT_ID":"45747","RCS_SIZE":"LARGE","CLASSIFICATION_TYPE":"U","DECAY_DATE":null,"ARG_OF_PERICENTER":"56.6607","OBJECT_TYPE":"PAYLOAD","INCLINATION":"53.0547","OBJECT_NAME":"STARLINK-1506","PERIAPSIS":"546.109","ELEMENT_SET_NO":"999","PERIOD":"95.592","LAUNCH_DATE":"2020-06-13","ECCENTRICITY":"0.00015980","REV_AT_EPOCH":"9885","TLE_LINE1":"1 45747U 20038T   22087.70190676  .00001345  00000-0  10919-3 0  9991","MEAN_ELEMENT_THEORY":"SGP4","APOAPSIS":"548.322","RA_OF_ASC_NODE":"229.9527","CENTER_NAME":"EARTH","GP_ID":"199942195","EPHEMERIS_TYPE":"0","SEMIMAJOR_AXIS":"6925.350","MEAN_ANOMALY":"303.4535","SITE":"AFETR","BSTAR":"0.00010919000000","COUNTRY_CODE":"US","OBJECT_ID":"2020-038T","MEAN_MOTION_DOT":"0.00001345","MEAN_MOTION":"15.06399415","TLE_LINE2":"2 45747  53.0547 229.9527 0001598  56.6607 303.4535 15.06399415 98858","EPOCH":"2022-03-28T16:50:44.744064","MEAN_MOTION_DDOT":"0.0000000000000","REF_FRAME":"TEME"},{"ECCENTRICITY":"0.00014510","REV_AT_EPOCH":"9885","TLE_LINE1":"1 45748U 20038U   22087.75625210  .00001576  00000-0  12471-3 0  9995","PERIOD":"95.592","LAUNCH_DATE":"2020-06-13","ELEMENT_SET_NO":"999","INCLINATION":"53.0507","OBJECT_NAME":"STARLINK-1507","PERIAPSIS":"546.214","RCS_SIZE":"LARGE","NORAD_CAT_ID":"45748","CLASSIFICATION_TYPE":"U","ARG_OF_PERICENTER":"68.3320","DECAY_DATE":null,"OBJECT_TYPE":"PAYLOAD","FILE":"3378342","TIME_SYSTEM":"UTC","MEAN_MOTION_DDOT":"0.0000000000000","REF_FRAME":"TEME","TLE_LINE2":"2 45748  53.0507 229.7070 0001451  68.3320 291.7823 15.06398429 98859","EPOCH":"2022-03-28T18:09:00.181440","MEAN_MOTION_DOT":"0.00001576","MEAN_MOTION":"15.06398429","OBJECT_ID":"2020-038U","MEAN_ANOMALY":"291.7823","SITE":"AFETR","COUNTRY_CODE":"US","BSTAR":"0.00012471000000","EPHEMERIS_TYPE":"0","SEMIMAJOR_AXIS":"6925.353","RA_OF_ASC_NODE":"229.7070","CENTER_NAME":"EARTH","GP_ID":"199940943","MEAN_ELEMENT_THEORY":"SGP4","APOAPSIS":"548.223"},{"MEAN_ANOMALY":"291.9021","SITE":"AFETR","COUNTRY_CODE":"US","BSTAR":"0.00009085800000","EPHEMERIS_TYPE":"0","SEMIMAJOR_AXIS":"6925.330","RA_OF_ASC_NODE":"210.7772","CENTER_NAME":"EARTH","GP_ID":"199912071","MEAN_ELEMENT_THEORY":"SGP4","APOAPSIS":"548.343","MEAN_MOTION_DDOT":"0.0000000000000","REF_FRAME":"TEME","TLE_LINE2":"2 45750  53.0548 210.7772 0001657  68.2144 291.9021 15.06405964100227","EPOCH":"2022-03-28T12:28:00.519744","MEAN_MOTION":"15.06405964","MEAN_MOTION_DOT":"0.00001072","OBJECT_ID":"2020-038W","RCS_SIZE":"LARGE","NORAD_CAT_ID":"45750","CLASSIFICATION_TYPE":"U","ARG_OF_PERICENTER":"68.2144","DECAY_DATE":null,"OBJECT_TYPE":"PAYLOAD","FILE":"3377937","TIME_SYSTEM":"UTC","ECCENTRICITY":"0.00016570","REV_AT_EPOCH":"10022","TLE_LINE1":"1 45750U 20038W   22087.51945046  .00001072  00000-0  90858-4 0  9991","PERIOD":"95.592","LAUNCH_DATE":"2020-06-13","ELEMENT_SET_NO":"999","INCLINATION":"53.0548","OBJECT_NAME":"STARLINK-1391","PERIAPSIS":"546.048"},{"ELEMENT_SET_NO":"999","PERIAPSIS":"546.191","INCLINATION":"53.0559","OBJECT_NAME":"STARLINK-1464","REV_AT_EPOCH":"9910","TLE_LINE1":"1 45751U 20038X   22087.44943160  .00000738  00000-0  68456-4 0  9996","ECCENTRICITY":"0.00015330","LAUNCH_DATE":"2020-06-13","PERIOD":"95.593","FILE":"3377801","TIME_SYSTEM":"UTC","DECAY_DATE":null,"ARG_OF_PERICENTER":"59.1274","OBJECT_TYPE":"PAYLOAD","RCS_SIZE":"LARGE","NORAD_CAT_ID":"45751","CLASSIFICATION_TYPE":"U","MEAN_MOTION":"15.06387259","MEAN_MOTION_DOT":"0.00000738","OBJECT_ID":"2020-038X","MEAN_MOTION_DDOT":"0.0000000000000","REF_FRAME":"TEME","EPOCH":"2022-03-28T10:47:10.890240","TLE_LINE2":"2 45751  53.0559 211.0870 0001533  59.1274 300.9865 15.06387259 99106","CENTER_NAME":"EARTH","GP_ID":"199904219","RA_OF_ASC_NODE":"211.0870","MEAN_ELEMENT_THEORY":"SGP4","APOAPSIS":"548.314","SITE":"AFETR","COUNTRY_CODE":"US","BSTAR":"0.00006845600000","MEAN_ANOMALY":"300.9865","SEMIMAJOR_AXIS":"6925.388","EPHEMERIS_TYPE":"0"},{"DECAY_DATE":null,"ARG_OF_PERICENTER":"26.9417","OBJECT_TYPE":"PAYLOAD","RCS_SIZE":"LARGE","NORAD_CAT_ID":"45752","CLASSIFICATION_TYPE":"U","TIME_SYSTEM":"UTC","FILE":"3377941","LAUNCH_DATE":"2020-06-13","PERIOD":"91.327","REV_AT_EPOCH":"10403","TLE_LINE1":"1 45752U 20038Y   22087.86381960 -.00000407  00000-0  15248-5 0  9993","ECCENTRICITY":"0.00022960","PERIAPSIS":"338.123","INCLINATION":"53.0012","OBJECT_NAME":"STARLINK-1469","ELEMENT_SET_NO":"999","SEMIMAJOR_AXIS":"6717.800","EPHEMERIS_TYPE":"0","SITE":"AFETR","COUNTRY_CODE":"US","BSTAR":"0.00000152480000","MEAN_ANOMALY":"333.1721","MEAN_ELEMENT_THEORY":"SGP4","APOAPSIS":"341.208","CENTER_NAME":"EARTH","GP_ID":"199912080","RA_OF_ASC_NODE":"297.7187","EPOCH":"2022-03-28T20:43:54.013440","TLE_LINE2":"2 45752  53.0012 297.7187 0002296  26.9417 333.1721 15.76747360104039","MEAN_MOTION_DDOT":"0.0000000000000","REF_FRAME":"TEME","OBJECT_ID":"2020-038Y","MEAN_MOTION_DOT":"-0.00000407","MEAN_MOTION":"15.76747360"},{"GP_ID":"199940443","CENTER_NAME":"EARTH","RA_OF_ASC_NODE":"210.1538","APOAPSIS":"548.216","MEAN_ELEMENT_THEORY":"SGP4","COUNTRY_CODE":"US","BSTAR":"0.00028908000000","SITE":"AFETR","MEAN_ANOMALY":"305.3042","SEMIMAJOR_AXIS":"6925.301","EPHEMERIS_TYPE":"0","MEAN_MOTION_DOT":"0.00004029","MEAN_MOTION":"15.06415541","OBJECT_ID":"2020-038Z","REF_FRAME":"TEME","MEAN_MOTION_DDOT":"0.0000000000000","EPOCH":"2022-03-28T15:49:41.543040","TLE_LINE2":"2 45753  53.0543 210.1538 0001517  54.8089 305.3042 15.06415541 99135","FILE":"3378342","TIME_SYSTEM":"UTC","OBJECT_TYPE":"PAYLOAD","ARG_OF_PERICENTER":"54.8089","DECAY_DATE":null,"CLASSIFICATION_TYPE":"U","NORAD_CAT_ID":"45753","RCS_SIZE":"LARGE","ELEMENT_SET_NO":"999","PERIAPSIS":"546.115","OBJECT_NAME":"STARLINK-1476","INCLINATION":"53.0543","TLE_LINE1":"1 45753U 20038Z   22087.65950860  .00004029  00000-0  28908-3 0  9990","REV_AT_EPOCH":"9913","ECCENTRICITY":"0.00015170","LAUNCH_DATE":"2020-06-13","PERIOD":"95.591"},{"PERIOD":"95.591","LAUNCH_DATE":"2020-06-13","ECCENTRICITY":"0.00013710","REV_AT_EPOCH":"9914","TLE_LINE1":"1 45754U 20038AA  22087.72954070  .00011740  00000-0  80538-3 0  9991","INCLINATION":"53.0525","OBJECT_NAME":"STARLINK-1477","PERIAPSIS":"546.217","ELEMENT_SET_NO":"999","RCS_SIZE":"LARGE","NORAD_CAT_ID":"45754","CLASSIFICATION_TYPE":"U","DECAY_DATE":null,"ARG_OF_PERICENTER":"53.5536","OBJECT_TYPE":"PAYLOAD","TIME_SYSTEM":"UTC","FILE":"3378342","TLE_LINE2":"2 45754  53.0525 209.8293 0001371  53.5536 306.5579 15.06415351 99148","EPOCH":"2022-03-28T17:30:32.316480","MEAN_MOTION_DDOT":"0.0000000000000","REF_FRAME":"TEME","OBJECT_ID":"2020-038AA","MEAN_MOTION":"15.06415351","MEAN_MOTION_DOT":"0.00011740","EPHEMERIS_TYPE":"0","SEMIMAJOR_AXIS":"6925.302","MEAN_ANOMALY":"306.5579","SITE":"AFETR","COUNTRY_CODE":"US","BSTAR":"0.00080538000000","MEAN_ELEMENT_THEORY":"SGP4","APOAPSIS":"548.116","RA_OF_ASC_NODE":"209.8293","CENTER_NAME":"EARTH","GP_ID":"199940693"},{"SITE":"AFETR","COUNTRY_CODE":"US","BSTAR":"0.00037393000000","MEAN_ANOMALY":"295.7432","SEMIMAJOR_AXIS":"6925.298","EPHEMERIS_TYPE":"0","CENTER_NAME":"EARTH","GP_ID":"199941445","RA_OF_ASC_NODE":"210.3519","MEAN_ELEMENT_THEORY":"SGP4","APOAPSIS":"548.281","MEAN_MOTION_DDOT":"0.0000000000000","REF_FRAME":"TEME","EPOCH":"2022-03-28T14:46:00.328512","TLE_LINE2":"2 45755  53.0533 210.3519 0001615  64.3724 295.7432 15.06416487 99111","MEAN_MOTION_DOT":"0.00005295","MEAN_MOTION":"15.06416487","OBJECT_ID":"2020-038AB","ARG_OF_PERICENTER":"64.3724","DECAY_DATE":null,"OBJECT_TYPE":"PAYLOAD","RCS_SIZE":"LARGE","NORAD_CAT_ID":"45755","CLASSIFICATION_TYPE":"U","FILE":"3378342","TIME_SYSTEM":"UTC","REV_AT_EPOCH":"9911","TLE_LINE1":"1 45755U 20038AB  22087.61528158  .00005295  00000-0  37393-3 0  9993","ECCENTRICITY":"0.00016150","LAUNCH_DATE":"2020-06-13","PERIOD":"95.591","ELEMENT_SET_NO":"999","PERIAPSIS":"546.045","INCLINATION":"53.0533","OBJECT_NAME":"STARLINK-1478"},{"RA_OF_ASC_NODE":"209.4705","CENTER_NAME":"EARTH","GP_ID":"199912119","MEAN_ELEMENT_THEORY":"SGP4","APOAPSIS":"548.247","MEAN_ANOMALY":"300.8122","SITE":"AFETR","COUNTRY_CODE":"US","BSTAR":"0.00043558000000","EPHEMERIS_TYPE":"0","SEMIMAJOR_AXIS":"6925.330","MEAN_MOTION":"15.06406031","MEAN_MOTION_DOT":"0.00006213","OBJECT_ID":"2020-038AC","MEAN_MOTION_DDOT":"0.0000000000000","REF_FRAME":"TEME","TLE_LINE2":"2 45756  53.0538 209.4705 0001519  59.3017 300.8122 15.06406031100262","EPOCH":"2022-03-28T19:27:20.186784","FILE":"3377944","TIME_SYSTEM":"UTC","NORAD_CAT_ID":"45756","RCS_SIZE":"LARGE","CLASSIFICATION_TYPE":"U","DECAY_DATE":null,"ARG_OF_PERICENTER":"59.3017","OBJECT_TYPE":"PAYLOAD","ELEMENT_SET_NO":"999","INCLINATION":"53.0538","OBJECT_NAME":"STARLINK-1484","PERIAPSIS":"546.143","ECCENTRICITY":"0.00015190","REV_AT_EPOCH":"10026","TLE_LINE1":"1 45756U 20038AC  22087.81065031  .00006213  00000-0  43558-3 0  9993","PERIOD":"95.592","LAUNCH_DATE":"2020-06-13"},{"ECCENTRICITY":"0.00015560","TLE_LINE1":"1 45757U 20038AD  22087.82906668  .00011041  00000-0  75858-3 0  9998","REV_AT_EPOCH":"9914","PERIOD":"95.591","LAUNCH_DATE":"2020-06-13","ELEMENT_SET_NO":"999","OBJECT_NAME":"STARLINK-1486","INCLINATION":"53.0532","PERIAPSIS":"546.076","CLASSIFICATION_TYPE":"U","NORAD_CAT_ID":"45757","RCS_SIZE":"LARGE","OBJECT_TYPE":"PAYLOAD","DECAY_DATE":null,"ARG_OF_PERICENTER":"55.5736","FILE":"3378342","TIME_SYSTEM":"UTC","REF_FRAME":"TEME","MEAN_MOTION_DDOT":"0.0000000000000","TLE_LINE2":"2 45757  53.0532 209.3844 0001556  55.5736 304.5400 15.06419564 99146","EPOCH":"2022-03-28T19:53:51.361152","MEAN_MOTION_DOT":"0.00011041","MEAN_MOTION":"15.06419564","OBJECT_ID":"2020-038AD","MEAN_ANOMALY":"304.5400","COUNTRY_CODE":"US","BSTAR":"0.00075858000000","SITE":"AFETR","EPHEMERIS_TYPE":"0","SEMIMAJOR_AXIS":"6925.289","RA_OF_ASC_NODE":"209.3844","GP_ID":"199940944","CENTER_NAME":"EARTH","APOAPSIS":"548.231","MEAN_ELEMENT_THEORY":"SGP4"}];
